IRIDIUM 171             
1 43929U 19002H   24220.52294740  .00000460  00000+0  15701-3 0  9998
2 43929  86.3951 277.4113 0002073  93.8650 266.2783 14.34218864291680
IRIDIUM 170             
1 43930U 19002J   24220.57555838  .00001872  00000+0  29286-3 0  9994
2 43930  86.6068 277.2005 0002322  93.4396 266.7086 14.72271467299412
IRIDIUM 167             
1 43931U 19002K   24220.65616140  .00000512  00000+0  17575-3 0  9996
2 43931  86.3942 277.1406 0002143  92.2455 267.8986 14.34216984291705
IRIDIUM 181             
1 56726U 23068S   24220.33202156  .00000838  00000+0  24174-3 0  9996
2 56726  86.8676 333.5003 0002189  90.6023 269.5430 14.43587610 64510
IRIDIUM 177             
1 56727U 23068T   24220.80522407  .00000176  00000+0  19678-4 0  9992
2 56727  86.1966 290.8541 0002053  90.8398 269.3058 14.80204990 66014
IRIDIUM 174             
1 56728U 23068U   24220.79980603  .00002708  00000+0  35308-3 0  9997
2 56728  86.1974 290.9641 0002303  86.5804 273.5681 14.80206810 66010
IRIDIUM 178             
1 56729U 23068V   24220.79434712  .00002992  00000+0  39048-3 0  9993
2 56729  86.5804 310.8816 0002400  84.8639 275.2856 14.80205580 66014
IRIDIUM 179             
1 56730U 23068W   24220.58612197  .00003238  00000+0  42301-3 0  9997
2 56730  86.6821 315.7535 0002415  96.0722 264.0775 14.80203385 65984
